NORAD_CAT_ID,OBJECT_NAME,OBJECT_TYPE,EPOCH,MEAN_MOTION,ECCENTRICITY,INCLINATION,RA_OF_ASC_NODE,ARG_OF_PERICENTER,MEAN_ANOMALY,BSTAR,MEAN_MOTION_DOT,MEAN_MOTION_DDOT,TLE_LINE0,TLE_LINE1,TLE_LINE2,SEMIMAJOR_AXIS,PERIOD,APOGEE,PERIGEE,DECAYED
51802.0,STARLINK-3557,PAYLOAD,2022-07-12 22:00:00,15.0881345,0.0001648,53.2175,225.6453,42.356,3.7089,0.0025687,0.000408,0.0,0 STARLINK-3557,1 51802U 22017AL  22193.91667824  .00040800  00000-0  25687-2 0  9990,2 51802  53.2175 225.6453 0001648  42.3560   3.7089 15.08813450  1303,6917.962,95.439,540.967,538.686,0.0
51802.0,STARLINK-3557,PAYLOAD,2022-07-13 04:00:00,15.08850259,0.0001691,53.2176,224.5235,44.0175,280.7231,-0.00065205,-0.00010653,0.0,0 STARLINK-3557,1 51802U 22017AL  22194.16667824 -.00010653  00000-0 -65205-3 0  9994,2 51802  53.2176 224.5235 0001691  44.0175 280.7231 15.08850259 22294,6917.849,95.437,540.884,538.544,0.0
51802.0,STARLINK-3557,PAYLOAD,2022-07-13 14:00:01,15.08837312,0.0001904,53.217,222.6544,37.9665,31.272,0.00043686,6.671e-05,0.0,0 STARLINK-3557,1 51802U 22017AL  22194.58334491  .00006671  00000-0  43686-3 0  9993,2 51802  53.2170 222.6544 0001904  37.9665  31.2720 15.08837312  1308,6917.889,95.438,541.071,538.436,0.0
51802.0,STARLINK-3557,PAYLOAD,2022-07-13 22:00:00,15.08804219,0.0001720999999999,53.2171,221.1563,45.26300000000001,35.581,0.001635,0.00025803,0.0,0 STARLINK-3557,1 51802U 22017AL  22194.91667824  .00025803  00000-0  16350-2 0  9994,2 51802  53.2171 221.1563 0001721  45.2630  35.5810 15.08804219  1302,6917.99,95.44,541.045,538.664,0.0
51802.0,STARLINK-3557,PAYLOAD,2022-07-14 14:00:01,15.08812422,0.0001818,53.2166,218.1652,35.47400000000001,68.5576,0.0011305,0.00017736,0.0,0 STARLINK-3557,1 51802U 22017AL  22195.58334491  .00017736  00000-0  11305-2 0  9990,2 51802  53.2166 218.1652 0001818  35.4740  68.5576 15.08812422 22517,6917.965,95.439,541.087,538.572,0.0
51802.0,STARLINK-3557,PAYLOAD,2022-07-14 22:00:00,15.0880043,0.0001594,53.2166,216.6672,41.2002,74.4103,0.0025182,0.00039973,0.0,0 STARLINK-3557,1 51802U 22017AL  22195.91667824  .00039973  00000-0  25182-2 0  9991,2 51802  53.2166 216.6672 0001594  41.2002  74.4103 15.08800430  1301,6918.001,95.44,540.969,538.764,0.0
51802.0,STARLINK-3557,PAYLOAD,2022-07-15 14:00:01,15.08822378,0.0001843,53.2163,213.6761,37.1369,101.6151,0.0005937,9.169e-05,0.0,0 STARLINK-3557,1 51802U 22017AL  22196.58334491  .00009169  00000-0  59370-3 0  9997,2 51802  53.2163 213.6761 0001843  37.1369 101.6151 15.08822378 22664,6917.934,95.439,541.0740000000002,538.524,0.0
51802.0,STARLINK-3557,PAYLOAD,2022-07-15 22:00:00,15.08807515,0.0001647,53.2163,212.1782,42.9738,107.365,0.0024468,0.00038833,0.0,0 STARLINK-3557,1 51802U 22017AL  22196.91667824  .00038833  00000-0  24468-2 0  9992,2 51802  53.2163 212.1782 0001647  42.9738 107.3650 15.08807515  1308,6917.98,95.44,540.984,538.705,0.0
51802.0,STARLINK-3557,PAYLOAD,2022-07-16 14:00:01,15.08833485,0.0001896,53.2163,209.187,38.5794,134.9142,4.298300000000001e-05,3.96e-06,0.0,0 STARLINK-3557,1 51802U 22017AL  22197.58334491  .00000396  00000-0  42983-4 0  9994,2 51802  53.2163 209.1870 0001896  38.5794 134.9142 15.08833485  1308,6917.9,95.438,541.077,538.4540000000002,0.0
51802.0,STARLINK-3557,PAYLOAD,2022-07-16 22:00:00,15.08816098,0.0001732,53.2164,207.689,44.1887,140.9011,0.0024442,0.00038801,0.0,0 STARLINK-3557,1 51802U 22017AL  22197.91667824  .00038801  00000-0  24442-2 0  9990,2 51802  53.2164 207.6890 0001732  44.1887 140.9011 15.08816098 22866,6917.953,95.439,541.0169999999998,538.62,0.0
51802.0,STARLINK-3557,PAYLOAD,2022-07-17 14:00:01,15.08847674,0.0001975,53.2166,204.6978,39.814,168.4497,-0.00049699,-8.191e-05,0.0,0 STARLINK-3557,1 51802U 22017AL  22198.58334491 -.00008191  00000-0 -49699-3 0  9998,2 51802  53.2166 204.6978 0001975  39.8140 168.4497 15.08847674 22962,6917.857,95.437,541.0880000000002,538.356,0.0
51802.0,STARLINK-3557,PAYLOAD,2022-07-17 22:00:00,15.08824482,0.0001845,53.2169,203.1998,45.1199,174.7478,0.0024274,0.00038539,0.0,0 STARLINK-3557,1 51802U 22017AL  22198.91667824  .00038539  00000-0  24274-2 0  9992,2 51802  53.2169 203.1998 0001845  45.1199 174.7478 15.08824482  1307,6917.928000000001,95.439,541.069,538.516,0.0
51802.0,STARLINK-3557,PAYLOAD,2022-07-18 14:00:01,15.08859688,0.000207,53.2172,200.2086,41.0332,202.0254,-0.0011055,-0.00017849,0.0,0 STARLINK-3557,1 51802U 22017AL  22199.58334491 -.00017849  00000-0 -11055-2 0  9993,2 51802  53.2172 200.2086 0002070  41.0332 202.0254 15.08859688  1305,6917.82,95.436,541.117,538.253,0.0
51802.0,STARLINK-3557,PAYLOAD,2022-07-18 22:00:00,15.0883694,0.0001935,53.2175,198.7107,46.1143,208.56,0.0019246,0.00030473,0.0,0 STARLINK-3557,1 51802U 22017AL  22199.91667824  .00030473  00000-0  19246-2 0  9995,2 51802  53.2175 198.7107 0001935  46.1143 208.5600 15.08836940 23168,6917.89,95.438,541.0930000000002,538.4159999999998,0.0
51802.0,STARLINK-3557,PAYLOAD,2022-07-19 14:00:01,15.08847548,0.0002073,53.2178,195.7195,40.1839,237.6901,-0.0015554,-0.00024963,0.0,0 STARLINK-3557,1 51802U 22017AL  22200.58334491 -.00024963  00000-0 -15554-2 0  9999,2 51802  53.2178 195.7195 0002073  40.1839 237.6901 15.08847548 23269,6917.857,95.437,541.156,538.288,0.0
51802.0,STARLINK-3557,PAYLOAD,2022-07-19 22:00:00,15.08849442,0.0001909,53.2175,194.2147,45.0378,244.4344,-0.0025685,-0.00040945,0.0,0 STARLINK-3557,1 51802U 22017AL  22200.91667824 -.00040945  00000-0 -25685-2 0  9999,2 51802  53.2175 194.2147 0001909  45.0378 244.4344 15.08849442  1309,6917.852,95.437,541.0369999999998,538.396,0.0
51802.0,STARLINK-3557,PAYLOAD,2022-07-20 14:00:01,15.08869201,0.0002099,53.218,191.2305,41.7395,270.9298,-0.0018704,-0.00029957,0.0,0 STARLINK-3557,1 51802U 22017AL  22201.58334491 -.00029957  00000-0 -18704-2 0  9998,2 51802  53.2180 191.2305 0002099  41.7395 270.9298 15.08869201  1308,6917.791,95.436,541.1080000000002,538.2040000000002,0.0
51802.0,STARLINK-3557,PAYLOAD,2022-07-20 22:00:01,15.08841548,0.0001926,53.2182,189.7328,46.3895,277.9605,-0.00022942,-3.938e-05,0.0,0 STARLINK-3557,1 51802U 22017AL  22201.91668981 -.00003938  00000-0 -22942-3 0  9990,2 51802  53.2182 189.7328 0001926  46.3895 277.9605 15.08841548 23465,6917.876,95.437,541.073,538.408,0.0
51802.0,STARLINK-3557,PAYLOAD,2022-07-21 14:00:01,15.08849272,0.0002048,53.2177,186.7415,41.3849,306.1373,-0.0021664,-0.00034611,0.0,0 STARLINK-3557,1 51802U 22017AL  22202.58335648 -.00034611  00000-0 -21664-2 0  9996,2 51802  53.2177 186.7415 0002048  41.3849 306.1373 15.08849272  1301,6917.852,95.437,541.134,538.3,0.0
51802.0,STARLINK-3557,PAYLOAD,2022-07-21 22:00:00,15.08823389,0.0001909,53.2179,185.2442,47.4612,311.5935,0.0022156,0.00035134,0.0,0 STARLINK-3557,1 51802U 22017AL  22202.91667824  .00035134  00000-0  22156-2 0  9993,2 51802  53.2179 185.2442 0001909  47.4612 311.5935 15.08823389  1302,6917.931,95.439,541.117,538.476,0.0
51802.0,STARLINK-3557,PAYLOAD,2022-07-22 06:00:00,15.08843138,0.0002108,53.2177,183.7497,44.0745,326.5746,-0.00035726,-5.97e-05,0.0,0 STARLINK-3557,1 51802U 22017AL  22203.25001157 -.00005970  00000-0 -35726-3 0  9997,2 51802  53.2177 183.7497 0002108  44.0745 326.5746 15.08843138 23679,6917.871,95.437,541.194,538.278,0.0
51802.0,STARLINK-3557,PAYLOAD,2022-07-22 22:00:00,15.08852269,0.0001889999999999,53.2173,180.7554,48.8087,345.0443,-0.00103,-0.00016649,0.0,0 STARLINK-3557,1 51802U 22017AL  22203.91667824 -.00016649  00000-0 -10300-2 0  9994,2 51802  53.2173 180.7554 0001890  48.8087 345.0443 15.08852269  1305,6917.843000000003,95.437,541.015,538.4,0.0
51802.0,STARLINK-3557,PAYLOAD,2022-07-23 14:00:01,15.08832651,0.000225,53.2167,177.7638,48.549,8.4485,-0.0019952999999999,-0.00031898,0.0,0 STARLINK-3557,1 51802U 22017AL  22204.58335648 -.00031898  00000-0 -19953-2 0  9990,2 51802  53.2167 177.7638 0002250  48.5490   8.4485 15.08832651  1302,6917.903,95.438,541.3240000000002,538.211,0.0
51802.0,STARLINK-3557,PAYLOAD,2022-07-23 22:00:00,15.08818877,0.0002183,53.2167,176.2668,53.8354,14.675,0.0015775,0.00024893,0.0,0 STARLINK-3557,1 51802U 22017AL  22204.91667824  .00024893  00000-0  15775-2 0  9994,2 51802  53.2167 176.2668 0002183  53.8354  14.6750 15.08818877  1300,6917.945,95.439,541.32,538.3,0.0
51802.0,STARLINK-3557,PAYLOAD,2022-07-24 14:00:01,15.0884491,0.0002308,53.2165,173.2749,50.4534,41.2092,-0.0018725999999999,-0.00029972,0.0,0 STARLINK-3557,1 51802U 22017AL  22205.58334491 -.00029972  00000-0 -18726-2 0  9993,2 51802  53.2165 173.2749 0002308  50.4534  41.2092 15.08844910  1309,6917.865,95.437,541.327,538.134,0.0
51802.0,STARLINK-3557,PAYLOAD,2022-07-24 22:00:00,15.08833659,0.0002285,53.2167,171.7778,55.2272,48.022,0.0010157999999999,0.00015913,0.0,0 STARLINK-3557,1 51802U 22017AL  22205.91667824  .00015913  00000-0  10158-2 0  9998,2 51802  53.2167 171.7778 0002285  55.2272  48.0220 15.08833659 24077,6917.9,95.438,541.346,538.184,0.0
51802.0,STARLINK-3557,PAYLOAD,2022-07-25 14:00:01,15.08854265,0.0002392,53.2168,168.7858,51.9507,74.4797,-0.0018120999999999,-0.00029025,0.0,0 STARLINK-3557,1 51802U 22017AL  22206.58334491 -.00029025  00000-0 -18121-2 0  9992,2 51802  53.2168 168.7858 0002392  51.9507  74.4797 15.08854265  1305,6917.837,95.437,541.357,538.047,0.0
51802.0,STARLINK-3557,PAYLOAD,2022-07-25 22:00:00,15.08849477,0.0002396999999999,53.2172,167.2888,56.3458,81.6845,0.00060353,9.333e-05,0.0,0 STARLINK-3557,1 51802U 22017AL  22206.91667824  .00009333  00000-0  60353-3 0  9991,2 51802  53.2172 167.2888 0002397  56.3458  81.6845 15.08849477 24225,6917.851,95.437,541.375,538.058,0.0
51802.0,STARLINK-3557,PAYLOAD,2022-07-26 14:00:01,15.08866938,0.0002467,53.2175,164.2967,53.6355,107.6084,-0.0015335,-0.0002463,0.0,0 STARLINK-3557,1 51802U 22017AL  22207.58334491 -.00024630  00000-0 -15335-2 0  9994,2 51802  53.2175 164.2967 0002467  53.6355 107.6084 15.08866938  1306,6917.7980000000025,95.436,541.37,537.956,0.0
